0 BREEZE-M DEB
1 38597U 08011AU  13284.37665205 -.00000576  00000-0 -33612-2 0  2275
2 38597 048.9043 157.6769 6415740 270.6847 337.9399 03.23650509 29629
0 BREEZE-M DEB
1 38597U 08011AU  13285.61489348 -.00000621  00000-0 -36929-2 0  2281
2 38597 048.9274 157.2026 6413029 271.0928 340.6732 03.23645592 29662
0 BREEZE-M DEB
1 38597U 08011AU  13293.07891175  .00000742  00000-0  39941-2 0  2295
2 38597 048.9302 154.3318 6406208 273.5748 037.2172 03.23643545 29915
0 BREEZE-M DEB
1 38597U 08011AU  13293.33496144  .00000752  00000-0  39987-2 0  2304
2 38597 048.8854 154.2138 6407154 273.6894 335.5636 03.23645199 29915
0 BREEZE-M DEB
1 38597U 08011AU  13294.00602537  .00000865  00000-0  48106-2 0  2313
2 38597 048.9009 153.9528 6404737 273.9127 037.4141 03.23647482 29942
0 BREEZE-M DEB
1 38597U 08011AU  13294.88461750  .00000440  00000-0  22779-2 0  2327
2 38597 048.9009 153.6095 6404638 274.2096 341.0957 03.23642320 29975
